[{"OBJECT_NAME":"STARLINK-35032","OBJECT_ID":"2025-191D","EPOCH":"2026-03-09T14:09:35.602560","MEAN_MOTION":15.05647823,"ECCENTRICITY":0.0001986,"INCLINATION":97.6027,"RA_OF_ASC_NODE":301.4143,"ARG_OF_PERICENTER":89.3469,"MEAN_ANOMALY":270.7985,"EPHEMERIS_TYPE":0,"CLASSIFICATION_TYPE":"U","NORAD_CAT_ID":65382,"ELEMENT_SET_NO":999,"REV_AT_EPOCH":3025,"BSTAR":0.0008083,"MEAN_MOTION_DOT":0.00011621,"MEAN_MOTION_DDOT":0},{"OBJECT_NAME":"FENGYUN 1C DEB","OBJECT_ID":"1999-025AFM","EPOCH":"2026-03-09T00:10:59.422080","MEAN_MOTION":14.62656122,"ECCENTRICITY":0.01859131,"INCLINATION":98.0774,"RA_OF_ASC_NODE":85.1868,"ARG_OF_PERICENTER":297.7723,"MEAN_ANOMALY":114.9924,"EPHEMERIS_TYPE":0,"CLASSIFICATION_TYPE":"U","NORAD_CAT_ID":30450,"ELEMENT_SET_NO":999,"REV_AT_EPOCH":797,"BSTAR":0.00091047967,"MEAN_MOTION_DOT":5.887e-5,"MEAN_MOTION_DDOT":0}]
